[{"OBJECT_NAME":"CAPELLA-17 (ACADIA-7)","OBJECT_ID":"2025-135BH","EPOCH":"2026-03-09T21:46:00.782400","MEAN_MOTION":14.90843227,"ECCENTRICITY":0.00046578,"INCLINATION":97.7566,"RA_OF_ASC_NODE":184.0901,"ARG_OF_PERICENTER":330.6991,"MEAN_ANOMALY":29.3965,"EPHEMERIS_TYPE":0,"CLASSIFICATION_TYPE":"U","NORAD_CAT_ID":64583,"ELEMENT_SET_NO":999,"REV_AT_EPOCH":3905,"BSTAR":0.0010665608,"MEAN_MOTION_DOT":0.0001046,"MEAN_MOTION_DDOT":0},{"OBJECT_NAME":"AETHER-4","OBJECT_ID":"2026-004N","EPOCH":"2026-03-09T23:25:23.871072","MEAN_MOTION":14.88037965,"ECCENTRICITY":0.00064882,"INCLINATION":97.8035,"RA_OF_ASC_NODE":69.2093,"ARG_OF_PERICENTER":90.2831,"MEAN_ANOMALY":269.9129,"EPHEMERIS_TYPE":0,"CLASSIFICATION_TYPE":"U","NORAD_CAT_ID":67375,"ELEMENT_SET_NO":999,"REV_AT_EPOCH":854,"BSTAR":0.00015024135,"MEAN_MOTION_DOT":1.326e-5,"MEAN_MOTION_DDOT":0}]
