CAPELLA-17 (ACADIA-7)   
1 64583U 25135BH  26068.90695350  .00010460  00000+0  10666-2 0  9992
2 64583  97.7566 184.0901 0004658 330.6991  29.3965 14.90843227 39056
AETHER-4                
1 67375U 26004N   26068.97597073  .00001326  00000+0  15024-3 0  9995
2 67375  97.8035  69.2093 0006488  90.2831 269.9129 14.88037965  8546
